{"type": "FeatureCollection", "features": [ {"type": "Feature", "properties": {"norad_id": 43108, "name": "BEIDOU-3 M8 (C28)", "group": "beidou", "lat": -38.985197715094856, "lon": -87.01042605880437, "alt_km": 21521.587824124006, "timestamp": "2025-12-27T09:28:56.741781+00:00", "meta": {"OBJECT_NAME": "BEIDOU-3 M8 (C28)", "OBJECT_ID": "2018-003B", "EPOCH": "2025-12-24T05:58:21.185184", "MEAN_MOTION": 1.86231107, "ECCENTRICITY": 0.00045887, "INCLINATION": 54.4794, "RA_OF_ASC_NODE": 308.398, "ARG_OF_PERICENTER": 279.3969, "MEAN_ANOMALY": 80.5568, "EPHEMERIS_TYPE": 0, "CLASSIFICATION_TYPE": "U", "NORAD_CAT_ID": 43108, "ELEMENT_SET_NO": 999, "REV_AT_EPOCH": 5410, "BSTAR": 0, "MEAN_MOTION_DOT": -5.4e-07, "MEAN_MOTION_DDOT": 0}, "tle": {"line1": "1 43108U 18003B   25358.24885631 -.00000054  00000+0  00000+0 0  9996", "line2": "2 43108  54.4794 308.3980 0004588 279.3969  80.5568  1.86231107 54103"}}, "geometry": {"type": "Point", "coordinates": [-87.01042605880437, -38.985197715094856]}}, {"type": "Feature", "properties": {"norad_id": 43207, "name": "BEIDOU-3 M4 (C22)", "group": "beidou", "lat": 10.860283109967472, "lon": 76.12705185049428, "alt_km": 21515.36159305805, "timestamp": "2025-12-27T09:28:56.741794+00:00", "meta": {"OBJECT_NAME": "BEIDOU-3 M4 (C22)", "OBJECT_ID": "2018-018A", "EPOCH": "2025-12-25T18:21:17.493120", "MEAN_MOTION": 1.86231089, "ECCENTRICITY": 0.00042291, "INCLINATION": 56.4961, "RA_OF_ASC_NODE": 68.874, "ARG_OF_PERICENTER": 1.268, "MEAN_ANOMALY": 358.7861, "EPHEMERIS_TYPE": 0, "CLASSIFICATION_TYPE": "U", "NORAD_CAT_ID": 43207, "ELEMENT_SET_NO": 999, "REV_AT_EPOCH": 5351, "BSTAR": 0, "MEAN_MOTION_DOT": -2.7e-07, "MEAN_MOTION_DDOT": 0}, "tle": {"line1": "1 43207U 18018A   25359.76478580 -.00000027  00000+0  00000+0 0  9991", "line2": "2 43207  56.4961  68.8740 0004229   1.2680 358.7861  1.86231089 53516"}}, "geometry": {"type": "Point", "coordinates": [76.12705185049428, 10.860283109967472]}}, {"type": "Feature", "properties": {"norad_id": 43208, "name": "BEIDOU-3 M3 (C21)", "group": "beidou", "lat": -25.891759123479357, "lon": 50.10742688827557, "alt_km": 21512.163864753908, "timestamp": "2025-12-27T09:28:56.741805+00:00", "meta": {"OBJECT_NAME": "BEIDOU-3 M3 (C21)", "OBJECT_ID": "2018-018B", "EPOCH": "2025-12-26T08:50:15.779616", "MEAN_MOTION": 1.86231383, "ECCENTRICITY": 0.0007147, "INCLINATION": 56.4961, "RA_OF_ASC_NODE": 68.858, "ARG_OF_PERICENTER": 313.9083, "MEAN_ANOMALY": 46.0843, "EPHEMERIS_TYPE": 0, "CLASSIFICATION_TYPE": "U", "NORAD_CAT_ID": 43208, "ELEMENT_SET_NO": 999, "REV_AT_EPOCH": 5352, "BSTAR": 0, "MEAN_MOTION_DOT": -3e-07, "MEAN_MOTION_DDOT": 0}, "tle": {"line1": "1 43208U 18018B   25360.36823819 -.00000030  00000+0  00000+0 0  9993", "line2": "2 43208  56.4961  68.8580 0007147 313.9083  46.0843  1.86231383 53526"}}, "geometry": {"type": "Point", "coordinates": [50.10742688827557, -25.891759123479357]}}, {"type": "Feature", "properties": {"norad_id": 43245, "name": "BEIDOU-3 M9 (C29)", "group": "beidou", "lat": -2.7934202014934386, "lon": 127.94649755144933, "alt_km": 21530.309767067403, "timestamp": "2025-12-27T09:28:56.741817+00:00", "meta": {"OBJECT_NAME": "BEIDOU-3 M9 (C29)", "OBJECT_ID": "2018-029A", "EPOCH": "2025-12-26T14:01:45.970176", "MEAN_MOTION": 1.86228127, "ECCENTRICITY": 0.00015403, "INCLINATION": 54.3532, "RA_OF_ASC_NODE": 305.9861, "ARG_OF_PERICENTER": 291.5798, "MEAN_ANOMALY": 68.4134, "EPHEMERIS_TYPE": 0, "CLASSIFICATION_TYPE": "U", "NORAD_CAT_ID": 43245, "ELEMENT_SET_NO": 999, "REV_AT_EPOCH": 5268, "BSTAR": 0, "MEAN_MOTION_DOT": -5.7e-07, "MEAN_MOTION_DDOT": 0}, "tle": {"line1": "1 43245U 18029A   25360.58455984 -.00000057  00000+0  00000+0 0  9993", "line2": "2 43245  54.3532 305.9861 0001540 291.5798  68.4134  1.86228127 52689"}}, "geometry": {"type": "Point", "coordinates": [127.94649755144933, -2.7934202014934386]}}, {"type": "Feature", "properties": {"norad_id": 43246, "name": "BEIDOU-3 M10 (C30)", "group": "beidou", "lat": -36.38968623504857, "lon": 157.8660413701821, "alt_km": 21541.536752730965, "timestamp": "2025-12-27T09:28:56.741828+00:00", "meta": {"OBJECT_NAME": "BEIDOU-3 M10 (C30)", "OBJECT_ID": "2018-029B", "EPOCH": "2025-12-25T23:35:13.323840", "MEAN_MOTION": 1.86229188, "ECCENTRICITY": 0.00043665, "INCLINATION": 54.3511, "RA_OF_ASC_NODE": 306.0337, "ARG_OF_PERICENTER": 3.7555, "MEAN_ANOMALY": 356.2576, "EPHEMERIS_TYPE": 0, "CLASSIFICATION_TYPE": "U", "NORAD_CAT_ID": 43246, "ELEMENT_SET_NO": 999, "REV_AT_EPOCH": 5265, "BSTAR": 0, "MEAN_MOTION_DOT": -5.5e-07, "MEAN_MOTION_DDOT": 0}, "tle": {"line1": "1 43246U 18029B   25359.98279310 -.00000055  00000+0  00000+0 0  9991", "line2": "2 43246  54.3511 306.0337 0004366   3.7555 356.2576  1.86229188 52653"}}, "geometry": {"type": "Point", "coordinates": [157.8660413701821, -36.38968623504857]}}, {"type": "Feature", "properties": {"norad_id": 43539, "name": "BEIDOU-2 IGSO-7 (C16)", "group": "beidou", "lat": -2.4440604688315557, "lon": -13.765629607137322, "alt_km": 35549.27340664027, "timestamp": "2025-12-27T09:28:56.741839+00:00", "meta": {"OBJECT_NAME": "BEIDOU-2 IGSO-7 (C16)", "OBJECT_ID": "2018-057A", "EPOCH": "2025-12-23T21:03:51.666912", "MEAN_MOTION": 1.00254881, "ECCENTRICITY": 0.00930582, "INCLINATION": 55.1784, "RA_OF_ASC_NODE": 164.5741, "ARG_OF_PERICENTER": 235.1099, "MEAN_ANOMALY": 119.1175, "EPHEMERIS_TYPE": 0, "CLASSIFICATION_TYPE": "U", "NORAD_CAT_ID": 43539, "ELEMENT_SET_NO": 999, "REV_AT_EPOCH": 2736, "BSTAR": 0, "MEAN_MOTION_DOT": -6.1e-07, "MEAN_MOTION_DDOT": 0}, "tle": {"line1": "1 43539U 18057A   25357.87768133 -.00000061  00000+0  00000+0 0  9996", "line2": "2 43539  55.1784 164.5741 0093058 235.1099 119.1175  1.00254881 27360"}}, "geometry": {"type": "Point", "coordinates": [-13.765629607137322, -2.4440604688315557]}}, {"type": "Feature", "properties": {"norad_id": 43581, "name": "BEIDOU-3 M5 (C23)", "group": "beidou", "lat": 51.88957676237771, "lon": -104.32130968544215, "alt_km": 21520.849781679022, "timestamp": "2025-12-27T09:28:56.741851+00:00", "meta": {"OBJECT_NAME": "BEIDOU-3 M5 (C23)", "OBJECT_ID": "2018-062A", "EPOCH": "2025-12-26T04:58:35.647392", "MEAN_MOTION": 1.86228653, "ECCENTRICITY": 0.00019141, "INCLINATION": 54.0903, "RA_OF_ASC_NODE": 188.1851, "ARG_OF_PERICENTER": 0.5751, "MEAN_ANOMALY": 359.4593, "EPHEMERIS_TYPE": 0, "CLASSIFICATION_TYPE": "U", "NORAD_CAT_ID": 43581, "ELEMENT_SET_NO": 999, "REV_AT_EPOCH": 5041, "BSTAR": 0, "MEAN_MOTION_DOT": 1.19e-06, "MEAN_MOTION_DDOT": 0}, "tle": {"line1": "1 43581U 18062A   25360.20735703  .00000119  00000+0  00000+0 0  9990", "line2": "2 43581  54.0903 188.1851 0001914   0.5751 359.4593  1.86228653 50418"}}, "geometry": {"type": "Point", "coordinates": [-104.32130968544215, 51.88957676237771]}}, {"type": "Feature", "properties": {"norad_id": 43582, "name": "BEIDOU-3 M6 (C24)", "group": "beidou", "lat": 9.397397258454822, "lon": 1.2459263070138147, "alt_km": 21537.824457541697, "timestamp": "2025-12-27T09:28:56.741862+00:00", "meta": {"OBJECT_NAME": "BEIDOU-3 M6 (C24)", "OBJECT_ID": "2018-062B", "EPOCH": "2025-12-23T22:08:28.739040", "MEAN_MOTION": 1.86229712, "ECCENTRICITY": 0.00078704, "INCLINATION": 54.0895, "RA_OF_ASC_NODE": 188.252, "ARG_OF_PERICENTER": 49.2706, "MEAN_ANOMALY": 310.8346, "EPHEMERIS_TYPE": 0, "CLASSIFICATION_TYPE": "U", "NORAD_CAT_ID": 43582, "ELEMENT_SET_NO": 999, "REV_AT_EPOCH": 5037, "BSTAR": 0, "MEAN_MOTION_DOT": 1e-06, "MEAN_MOTION_DDOT": 0}, "tle": {"line1": "1 43582U 18062B   25357.92255485  .00000100  00000+0  00000+0 0  9990", "line2": "2 43582  54.0895 188.2520 0007870  49.2706 310.8346  1.86229712 50379"}}, "geometry": {"type": "Point", "coordinates": [1.2459263070138147, 9.397397258454822]}}, {"type": "Feature", "properties": {"norad_id": 43602, "name": "BEIDOU-3 M12 (C26)", "group": "beidou", "lat": -23.824821497265937, "lon": 25.46866570635838, "alt_km": 21556.72851650199, "timestamp": "2025-12-27T09:28:56.741873+00:00", "meta": {"OBJECT_NAME": "BEIDOU-3 M12 (C26)", "OBJECT_ID": "2018-067A", "EPOCH": "2025-12-26T13:05:12.985152", "MEAN_MOTION": 1.86227811, "ECCENTRICITY": 0.0009236, "INCLINATION": 54.1838, "RA_OF_ASC_NODE": 186.8947, "ARG_OF_PERICENTER": 41.8469, "MEAN_ANOMALY": 318.2561, "EPHEMERIS_TYPE": 0, "CLASSIFICATION_TYPE": "U", "NORAD_CAT_ID": 43602, "ELEMENT_SET_NO": 999, "REV_AT_EPOCH": 4990, "BSTAR": 0, "MEAN_MOTION_DOT": 1.23e-06, "MEAN_MOTION_DDOT": 0}, "tle": {"line1": "1 43602U 18067A   25360.54528918  .00000123  00000+0  00000+0 0  9999", "line2": "2 43602  54.1838 186.8947 0009236  41.8469 318.2561  1.86227811 49905"}}, "geometry": {"type": "Point", "coordinates": [25.46866570635838, -23.824821497265937]}}, {"type": "Feature", "properties": {"norad_id": 43603, "name": "BEIDOU-3 M11 (C25)", "group": "beidou", "lat": 44.766555488274626, "lon": -38.941265035435755, "alt_km": 21520.737348811974, "timestamp": "2025-12-27T09:28:56.741885+00:00", "meta": {"OBJECT_NAME": "BEIDOU-3 M11 (C25)", "OBJECT_ID": "2018-067B", "EPOCH": "2025-12-24T12:46:04.310976", "MEAN_MOTION": 1.86227356, "ECCENTRICITY": 0.00056287, "INCLINATION": 54.181, "RA_OF_ASC_NODE": 186.927, "ARG_OF_PERICENTER": 37.873, "MEAN_ANOMALY": 322.1992, "EPHEMERIS_TYPE": 0, "CLASSIFICATION_TYPE": "U", "NORAD_CAT_ID": 43603, "ELEMENT_SET_NO": 999, "REV_AT_EPOCH": 4989, "BSTAR": 0, "MEAN_MOTION_DOT": 1.05e-06, "MEAN_MOTION_DDOT": 0}, "tle": {"line1": "1 43603U 18067B   25358.53199434  .00000105  00000+0  00000+0 0  9993", "line2": "2 43603  54.1810 186.9270 0005628  37.8730 322.1992  1.86227356 49897"}}, "geometry": {"type": "Point", "coordinates": [-38.941265035435755, 44.766555488274626]}}]}